[{"OBJECT_NAME":"NETSAT-4","OBJECT_ID":"2020-068U","EPOCH":"2026-03-04T11:00:16.618752","MEAN_MOTION":15.40120174,"ECCENTRICITY":0.00053235,"INCLINATION":97.8637,"RA_OF_ASC_NODE":63.5684,"ARG_OF_PERICENTER":359.5717,"MEAN_ANOMALY":0.5522,"EPHEMERIS_TYPE":0,"CLASSIFICATION_TYPE":"U","NORAD_CAT_ID":46504,"ELEMENT_SET_NO":999,"REV_AT_EPOCH":29963,"BSTAR":0.00073946699,"MEAN_MOTION_DOT":0.0002962,"MEAN_MOTION_DDOT":0},{"OBJECT_NAME":"NETSAT-3","OBJECT_ID":"2020-068V","EPOCH":"2026-03-05T06:57:15.557760","MEAN_MOTION":15.38813941,"ECCENTRICITY":0.00057259,"INCLINATION":97.8674,"RA_OF_ASC_NODE":62.8272,"ARG_OF_PERICENTER":14.1201,"MEAN_ANOMALY":346.0202,"EPHEMERIS_TYPE":0,"CLASSIFICATION_TYPE":"U","NORAD_CAT_ID":46505,"ELEMENT_SET_NO":999,"REV_AT_EPOCH":29968,"BSTAR":0.00061478795,"MEAN_MOTION_DOT":0.00023562,"MEAN_MOTION_DDOT":0},{"OBJECT_NAME":"NETSAT-1","OBJECT_ID":"2020-068W","EPOCH":"2026-03-04T11:01:42.187584","MEAN_MOTION":15.31826261,"ECCENTRICITY":0.00065179,"INCLINATION":97.8739,"RA_OF_ASC_NODE":57.4273,"ARG_OF_PERICENTER":34.8834,"MEAN_ANOMALY":325.2832,"EPHEMERIS_TYPE":0,"CLASSIFICATION_TYPE":"U","NORAD_CAT_ID":46506,"ELEMENT_SET_NO":999,"REV_AT_EPOCH":29925,"BSTAR":0.00079751895,"MEAN_MOTION_DOT":0.0002449,"MEAN_MOTION_DDOT":0},{"OBJECT_NAME":"NETSAT-2","OBJECT_ID":"2020-068X","EPOCH":"2026-03-05T06:14:12.032736","MEAN_MOTION":15.41310322,"ECCENTRICITY":0.00051367,"INCLINATION":97.8651,"RA_OF_ASC_NODE":64.0247,"ARG_OF_PERICENTER":34.1929,"MEAN_ANOMALY":325.9646,"EPHEMERIS_TYPE":0,"CLASSIFICATION_TYPE":"U","NORAD_CAT_ID":46507,"ELEMENT_SET_NO":999,"REV_AT_EPOCH":29970,"BSTAR":0.00067294247,"MEAN_MOTION_DOT":0.00028021,"MEAN_MOTION_DDOT":0},{"OBJECT_NAME":"WILDTRACKCUBE-SIMBA","OBJECT_ID":"2021-022K","EPOCH":"2026-03-05T06:00:38.704608","MEAN_MOTION":16.26321229,"ECCENTRICITY":0.00048608,"INCLINATION":97.3776,"RA_OF_ASC_NODE":346.2757,"ARG_OF_PERICENTER":147.5892,"MEAN_ANOMALY":212.57,"EPHEMERIS_TYPE":0,"CLASSIFICATION_TYPE":"U","NORAD_CAT_ID":47941,"ELEMENT_SET_NO":999,"REV_AT_EPOCH":27513,"BSTAR":0.0011795009,"MEAN_MOTION_DOT":0.03693738,"MEAN_MOTION_DDOT":2.479136e-6},{"OBJECT_NAME":"GREENCUBE (IO-117)","OBJECT_ID":"2022-080E","EPOCH":"2026-03-04T18:03:14.931360","MEAN_MOTION":6.42583119,"ECCENTRICITY":0.00090676,"INCLINATION":70.1624,"RA_OF_ASC_NODE":334.5702,"ARG_OF_PERICENTER":312.4506,"MEAN_ANOMALY":47.5387,"EPHEMERIS_TYPE":0,"CLASSIFICATION_TYPE":"U","NORAD_CAT_ID":53109,"ELEMENT_SET_NO":999,"REV_AT_EPOCH":8535,"BSTAR":0,"MEAN_MOTION_DOT":-3.0e-8,"MEAN_MOTION_DDOT":0},{"OBJECT_NAME":"SITRO-AIS 5 (KATYS)","OBJECT_ID":"2023-091L","EPOCH":"2026-03-05T06:56:57.876000","MEAN_MOTION":15.26921155,"ECCENTRICITY":0.00134351,"INCLINATION":97.5187,"RA_OF_ASC_NODE":127.3305,"ARG_OF_PERICENTER":108.9989,"MEAN_ANOMALY":251.2706,"EPHEMERIS_TYPE":0,"CLASSIFICATION_TYPE":"U","NORAD_CAT_ID":57176,"ELEMENT_SET_NO":999,"REV_AT_EPOCH":14847,"BSTAR":0.000577444,"MEAN_MOTION_DOT":0.00015246,"MEAN_MOTION_DDOT":0},{"OBJECT_NAME":"SITRO-AIS 6 (CHIRKIN)","OBJECT_ID":"2023-091AC","EPOCH":"2026-03-05T07:34:50.160576","MEAN_MOTION":15.24328355,"ECCENTRICITY":0.00142013,"INCLINATION":97.5191,"RA_OF_ASC_NODE":126.9698,"ARG_OF_PERICENTER":109.2708,"MEAN_ANOMALY":251.0067,"EPHEMERIS_TYPE":0,"CLASSIFICATION_TYPE":"U","NORAD_CAT_ID":57192,"ELEMENT_SET_NO":999,"REV_AT_EPOCH":14845,"BSTAR":0.00040002563,"MEAN_MOTION_DOT":9.742e-5,"MEAN_MOTION_DDOT":0},{"OBJECT_NAME":"SITRO-AIS 8 (ANOKHIN)","OBJECT_ID":"2023-091AD","EPOCH":"2026-03-05T06:40:35.116608","MEAN_MOTION":15.2917697,"ECCENTRICITY":0.00126112,"INCLINATION":97.518,"RA_OF_ASC_NODE":128.5207,"ARG_OF_PERICENTER":106.7439,"MEAN_ANOMALY":253.5185,"EPHEMERIS_TYPE":0,"CLASSIFICATION_TYPE":"U","NORAD_CAT_ID":57193,"ELEMENT_SET_NO":999,"REV_AT_EPOCH":14855,"BSTAR":0.00064294447,"MEAN_MOTION_DOT":0.00018195,"MEAN_MOTION_DDOT":0},{"OBJECT_NAME":"SITRO-AIS 7 (FARTUSHNIY)","OBJECT_ID":"2023-091AE","EPOCH":"2026-03-05T07:11:32.716608","MEAN_MOTION":15.24082676,"ECCENTRICITY":0.00140501,"INCLINATION":97.5191,"RA_OF_ASC_NODE":126.8266,"ARG_OF_PERICENTER":110.2521,"MEAN_ANOMALY":250.0228,"EPHEMERIS_TYPE":0,"CLASSIFICATION_TYPE":"U","NORAD_CAT_ID":57194,"ELEMENT_SET_NO":999,"REV_AT_EPOCH":14844,"BSTAR":0.00034659774,"MEAN_MOTION_DOT":8.368e-5,"MEAN_MOTION_DDOT":0},{"OBJECT_NAME":"SITRO-AIS 10 (BURDAEV)","OBJECT_ID":"2023-091AK","EPOCH":"2026-03-05T07:39:04.140288","MEAN_MOTION":15.34522169,"ECCENTRICITY":0.00084225,"INCLINATION":97.5193,"RA_OF_ASC_NODE":132.642,"ARG_OF_PERICENTER":88.7877,"MEAN_ANOMALY":271.4331,"EPHEMERIS_TYPE":0,"CLASSIFICATION_TYPE":"U","NORAD_CAT_ID":57199,"ELEMENT_SET_NO":999,"REV_AT_EPOCH":14881,"BSTAR":0.00070532621,"MEAN_MOTION_DOT":0.00023577,"MEAN_MOTION_DDOT":0},{"OBJECT_NAME":"SITRO-AIS 9 (SHCHUKIN)","OBJECT_ID":"2023-091AM","EPOCH":"2026-03-05T07:34:58.901664","MEAN_MOTION":15.34156992,"ECCENTRICITY":0.00086038,"INCLINATION":97.5191,"RA_OF_ASC_NODE":132.4407,"ARG_OF_PERICENTER":88.3314,"MEAN_ANOMALY":271.8913,"EPHEMERIS_TYPE":0,"CLASSIFICATION_TYPE":"U","NORAD_CAT_ID":57201,"ELEMENT_SET_NO":999,"REV_AT_EPOCH":14880,"BSTAR":0.00069081555,"MEAN_MOTION_DOT":0.00022824,"MEAN_MOTION_DDOT":0},{"OBJECT_NAME":"SITRO-AIS 12 (SMIRENNIY)","OBJECT_ID":"2023-091AQ","EPOCH":"2026-03-05T07:47:56.678784","MEAN_MOTION":15.34398223,"ECCENTRICITY":0.0008272,"INCLINATION":97.5203,"RA_OF_ASC_NODE":132.8567,"ARG_OF_PERICENTER":83.9592,"MEAN_ANOMALY":276.2593,"EPHEMERIS_TYPE":0,"CLASSIFICATION_TYPE":"U","NORAD_CAT_ID":57204,"ELEMENT_SET_NO":999,"REV_AT_EPOCH":14882,"BSTAR":0.00064933445,"MEAN_MOTION_DOT":0.00021607,"MEAN_MOTION_DDOT":0},{"OBJECT_NAME":"SITRO-AIS 11 (SHEFFER)","OBJECT_ID":"2023-091AU","EPOCH":"2026-03-05T07:10:43.732128","MEAN_MOTION":15.34737189,"ECCENTRICITY":0.00081311,"INCLINATION":97.52,"RA_OF_ASC_NODE":133.0182,"ARG_OF_PERICENTER":83.7,"MEAN_ANOMALY":276.5169,"EPHEMERIS_TYPE":0,"CLASSIFICATION_TYPE":"U","NORAD_CAT_ID":57208,"ELEMENT_SET_NO":999,"REV_AT_EPOCH":14883,"BSTAR":0.00071524218,"MEAN_MOTION_DOT":0.00024073,"MEAN_MOTION_DDOT":0},{"OBJECT_NAME":"SITRO-AIS 25","OBJECT_ID":"2024-039R","EPOCH":"2026-03-05T07:05:20.450112","MEAN_MOTION":14.92586099,"ECCENTRICITY":0.01458103,"INCLINATION":95.3945,"RA_OF_ASC_NODE":163.7316,"ARG_OF_PERICENTER":331.8564,"MEAN_ANOMALY":27.4833,"EPHEMERIS_TYPE":0,"CLASSIFICATION_TYPE":"U","NORAD_CAT_ID":59066,"ELEMENT_SET_NO":999,"REV_AT_EPOCH":10922,"BSTAR":0.00040763685,"MEAN_MOTION_DOT":5.124e-5,"MEAN_MOTION_DDOT":0},{"OBJECT_NAME":"SITRO-AIS 26","OBJECT_ID":"2024-039S","EPOCH":"2026-03-05T06:47:50.455968","MEAN_MOTION":14.92399117,"ECCENTRICITY":0.01461294,"INCLINATION":95.3944,"RA_OF_ASC_NODE":163.6412,"ARG_OF_PERICENTER":332.3483,"MEAN_ANOMALY":27.0023,"EPHEMERIS_TYPE":0,"CLASSIFICATION_TYPE":"U","NORAD_CAT_ID":59067,"ELEMENT_SET_NO":999,"REV_AT_EPOCH":10921,"BSTAR":0.00044428444,"MEAN_MOTION_DOT":5.565e-5,"MEAN_MOTION_DDOT":0}]
