NETSAT-4                
1 46504U 20068U   26063.45852568  .00029620  00000+0  73947-3 0  9996
2 46504  97.8637  63.5684 0005323 359.5717   0.5522 15.40120174299631
NETSAT-3                
1 46505U 20068V   26064.28976340  .00023562  00000+0  61479-3 0  9990
2 46505  97.8674  62.8272 0005725  14.1201 346.0202 15.38813941299682
NETSAT-1                
1 46506U 20068W   26063.45951606  .00024490  00000+0  79752-3 0  9991
2 46506  97.8739  57.4273 0006517  34.8834 325.2832 15.31826261299250
NETSAT-2                
1 46507U 20068X   26064.25986149  .00028021  00000+0  67294-3 0  9993
2 46507  97.8651  64.0247 0005136  34.1929 325.9646 15.41310322299700
WILDTRACKCUBE-SIMBA     
1 47941U 21022K   26064.25044797  .03693738  24791-5  11795-2 0  9990
2 47941  97.3776 346.2757 0004860 147.5892 212.5700 16.26321229275133
GREENCUBE (IO-117)      
1 53109U 22080E   26063.75225615 -.00000003  00000+0  00000+0 0  9992
2 53109  70.1624 334.5702 0009067 312.4506  47.5387  6.42583119 85351
SITRO-AIS 5 (KATYS)     
1 57176U 23091L   26064.28955875  .00015246  00000+0  57744-3 0  9995
2 57176  97.5187 127.3305 0013435 108.9989 251.2706 15.26921155148470
SITRO-AIS 6 (CHIRKIN)   
1 57192U 23091AC  26064.31585834  .00009742  00000+0  40003-3 0  9995
2 57192  97.5191 126.9698 0014201 109.2708 251.0067 15.24328355148455
SITRO-AIS 8 (ANOKHIN)   
1 57193U 23091AD  26064.27818422  .00018195  00000+0  64294-3 0  9993
2 57193  97.5180 128.5207 0012611 106.7439 253.5185 15.29176970148552
SITRO-AIS 7 (FARTUSHNIY)
1 57194U 23091AE  26064.29968422  .00008368  00000+0  34660-3 0  9997
2 57194  97.5191 126.8266 0014050 110.2521 250.0228 15.24082676148444
SITRO-AIS 10 (BURDAEV)  
1 57199U 23091AK  26064.31879792  .00023577  00000+0  70533-3 0  9994
2 57199  97.5193 132.6420 0008422  88.7877 271.4331 15.34522169148817
SITRO-AIS 9 (SHCHUKIN)  
1 57201U 23091AM  26064.31595951  .00022824  00000+0  69082-3 0  9991
2 57201  97.5191 132.4407 0008603  88.3314 271.8913 15.34156992148801
SITRO-AIS 12 (SMIRENNIY)
1 57204U 23091AQ  26064.32496156  .00021607  00000+0  64933-3 0  9990
2 57204  97.5203 132.8567 0008272  83.9592 276.2593 15.34398223148820
SITRO-AIS 11 (SHEFFER)  
1 57208U 23091AU  26064.29911727  .00024073  00000+0  71524-3 0  9990
2 57208  97.5200 133.0182 0008131  83.7000 276.5169 15.34737189148834
SITRO-AIS 25            
1 59066U 24039R   26064.29537558  .00005124  00000+0  40764-3 0  9991
2 59066  95.3945 163.7316 0145810 331.8564  27.4833 14.92586099109223
SITRO-AIS 26            
1 59067U 24039S   26064.28322287  .00005565  00000+0  44428-3 0  9992
2 59067  95.3944 163.6412 0146129 332.3483  27.0023 14.92399117109218
